STARLINK-1724_new
1 16375C 20062BD  21326.14638035  .00004127  00000-0  27661-3 0  3262
2 16375  53.0507 173.0845 0001828  75.2935 228.8205 15.06378576    11
STARLINK-1724_old
1 26375C 20062BD  21325.15124392 -.00015290  00000-0 -10247-2 0  3253
2 26375  53.0512 177.5519 0001834  74.1200 230.3844 15.06402755    18
